MEAN_MOTION;ECCENTRICITY;INCLINATION;RA_OF_ASC_NODE;ARG_OF_PERICENTER;MEAN_ANOMALY;BSTAR;MEAN_MOTION_DOT;MEAN_MOTION_DDOT;TYPE
14.34218574;0.0002283;86.3962;52.7352;83.7608;276.3847;2.3012E-5;8.4E-7;0;Iridium
14.34218632;0.0002275;86.3963;52.5019;83.4872;276.6583;2.2023E-5;8.1E-7;0;Iridium
14.3421868;0.0002273;86.3963;52.3268;83.6332;276.5122;2.1464E-5;8.0E-7;0;Iridium
14.34218793;0.0002269;86.3965;52.0644;83.5475;276.5979;2.2202E-5;8.2E-7;0;Iridium
14.34218841;0.0002267;86.3966;51.8894;83.5314;276.614;2.0911E-5;7.8E-7;0;Iridium
14.34218917;0.000226;86.3967;51.6561;83.1963;276.949;2.0457E-5;7.7E-7;0;Iridium
14.34219044;0.0002248;86.3969;51.2478;82.9899;277.1552;1.9132E-5;7.3E-7;0;Iridium
14.34219066;0.0002248;86.3969;51.1603;82.9472;277.1979;1.9511E-5;7.4E-7;0;Iridium
14.34219172;0.0002236;86.3971;50.8103;82.9414;277.2036;1.8021E-5;7.0E-7;0;Iridium
14.34219172;0.0002236;86.3971;50.8103;82.9414;277.2036;1.8021E-5;7.0E-7;0;Iridium
14.34219259;0.0002224;86.3973;50.4312;82.9396;277.2052;1.6907E-5;6.7E-7;0;Iridium
14.34219291;0.0002225;86.3973;50.227;82.8555;277.2894;1.5793E-5;6.4E-7;0;Iridium
14.34219303;0.0002217;86.3974;50.0228;82.8357;277.3091;1.4988E-5;6.2E-7;0;Iridium
14.34219321;0.0002214;86.3975;49.7895;82.751;277.3937;1.3422E-5;5.7E-7;0;Iridium
14.34219356;0.0002206;86.3977;49.3812;82.8043;277.3403;1.2655E-5;5.5E-7;0;Iridium
14.3421654;0.0002277;86.3976;49.1189;80.6522;279.4931;1.701E-5;6.7E-7;0;Iridium
14.34215505;0.0002223;86.3979;49.0022;81.6672;278.4776;1.8031E-5;7.0E-7;0;Iridium
14.34215645;0.0002221;86.398;48.7396;82.2074;277.9374;2.4614E-5;8.9E-7;0;Iridium
14.34215587;0.0002217;86.398;48.5647;82.1632;277.9815;3.8577E-6;3.1E-7;0;Iridium
14.34215604;0.0002208;86.3981;48.3023;82.1623;277.9823;4.8672E-6;3.3E-7;0;Iridium
14.34215604;0.0002208;86.3981;48.3023;82.1623;277.9823;4.8672E-6;3.3E-7;0;Iridium
14.34215628;0.0002201;86.3982;48.1274;82.1749;277.9697;7.0254E-6;3.9E-7;0;Iridium
14.3421572;0.0002192;86.3983;47.9233;82.2491;277.8953;1.4439E-5;6.0E-7;0;Iridium
14.34215715;0.0002191;86.3983;47.865;82.1877;277.9568;1.3628E-5;5.8E-7;0;Iridium
14.34215768;0.0002185;86.3983;47.7192;82.1753;277.969;1.5302E-5;6.3E-7;0;Iridium
14.34215874;0.0002177;86.3984;47.4568;82.1661;277.9782;1.9544E-5;7.5E-7;0;Iridium
14.342159;0.0002173;86.3985;47.3111;82.1376;278.0066;1.818E-5;7.1E-7;0;Iridium
14.34216007;0.0002167;86.3986;47.0487;82.0637;278.0805;2.1216E-5;7.9E-7;0;Iridium
14.34216016;0.0002168;86.3986;47.0196;82.0352;278.1089;2.151E-5;8.0E-7;0;Iridium
14.34216063;0.0002162;86.3986;46.8739;81.9929;278.1512;2.056E-5;7.7E-7;0;Iridium
14.34216143;0.0002153;86.3987;46.6698;81.9577;278.1863;2.1916E-5;8.1E-7;0;Iridium
14.34216214;0.0002148;86.3988;46.4657;81.9844;278.1595;2.1693E-5;8.1E-7;0;Iridium
14.34216322;0.0002141;86.3989;46.2034;81.9543;278.1896;2.2005E-5;8.1E-7;0;Iridium
14.34216307;0.000214;86.399;46.0285;82.1046;278.0393;1.787E-5;7.0E-7;0;Iridium
14.34216333;0.0002138;86.3991;45.7953;82.1315;278.0124;1.5003E-5;6.2E-7;0;Iridium
14.34216342;0.0002136;86.3992;45.6205;82.0903;278.0535;1.2188E-5;5.4E-7;0;Iridium
14.34216417;0.0002134;86.3993;45.3873;82.1294;278.0144;1.3573E-5;5.8E-7;0;Iridium
14.34216415;0.0002129;86.3993;45.2124;82.2449;277.8988;1.0794E-5;5.0E-7;0;Iridium
14.34216475;0.0002127;86.3995;44.9501;82.2399;277.9038;1.1426E-5;5.2E-7;0;Iridium
14.3421652;0.0002122;86.3995;44.8044;82.2818;277.8619;1.1792E-5;5.3E-7;0;Iridium
14.34216613;0.0002117;86.3997;44.5422;82.3099;277.8337;1.4164E-5;5.9E-7;0;Iridium
14.34216654;0.0002113;86.3998;44.3674;82.2458;277.8977;1.4793E-5;6.1E-7;0;Iridium
14.34216778;0.000211;86.3998;44.1342;82.4147;277.7288;2.0565E-5;7.7E-7;0;Iridium
14.34216785;0.0002111;86.3999;44.1051;82.3838;277.7597;2.0996E-5;7.9E-7;0;Iridium
14.34216826;0.0002106;86.3999;43.9594;82.4097;277.7338;2.0588E-5;7.7E-7;0;Iridium
14.34216885;0.0002101;86.4;43.6971;82.4379;277.7055;2.1464E-5;8.0E-7;0;Iridium
14.34216881;0.0002097;86.4;43.5514;82.4313;277.7121;1.8346E-5;7.1E-7;0;Iridium
14.34216931;0.0002097;86.4001;43.4931;82.6053;277.5381;2.1415E-5;8.0E-7;0;Iridium
14.34216992;0.0002087;86.4002;43.1143;82.6587;277.4846;1.9056E-5;7.3E-7;0;Iridium
14.34217025;0.0002082;86.4002;42.9395;82.6323;277.511;1.854E-5;7.2E-7;0;Iridium
14.34217025;0.0002082;86.4002;42.9395;82.6323;277.511;1.854E-5;7.2E-7;0;Iridium
14.34217069;0.0002078;86.4003;42.7064;82.7378;277.4054;1.8403E-5;7.1E-7;0;Iridium
14.34217177;0.000207;86.4003;42.5315;82.8428;277.3003;2.3356E-5;8.5E-7;0;Iridium
14.3421724;0.0002066;86.4004;42.2985;82.8443;277.2988;2.2798E-5;8.4E-7;0;Iridium
14.34217308;0.0002056;86.4004;42.0945;82.9251;277.2179;2.3808E-5;8.6E-7;0;Iridium
14.34217308;0.0002056;86.4004;42.0945;82.9251;277.2179;2.3808E-5;8.6E-7;0;Iridium
14.34217388;0.0002052;86.4005;41.8905;83.0396;277.1033;2.4641E-5;8.9E-7;0;Iridium
14.34217508;0.0002044;86.4005;41.6866;83.1727;276.9701;2.7041E-5;9.6E-7;0;Iridium
14.34217573;0.0002043;86.4006;41.4535;83.4043;276.7386;2.5949E-5;9.2E-7;0;Iridium
14.34217693;0.0002036;86.4007;41.2787;83.3911;276.7517;2.8454E-5;9.9E-7;0;Iridium
14.34217771;0.0002035;86.4007;41.0457;83.3728;276.7699;2.682E-5;9.5E-7;0;Iridium
14.34217854;0.000203;86.4008;40.8417;83.6152;276.5275;2.6742E-5;9.5E-7;0;Iridium
14.34217854;0.000203;86.4008;40.8417;83.6152;276.5275;2.6742E-5;9.5E-7;0;Iridium
14.34217899;0.0002032;86.4009;40.6378;83.7433;276.3994;2.4431E-5;8.8E-7;0;Iridium
14.34217977;0.0002034;86.401;40.2882;84.281;275.8618;2.1997E-5;8.1E-7;0;Iridium
14.34217992;0.0002037;86.401;40.2008;84.5713;275.5715;2.0592E-5;7.7E-7;0;Iridium
14.34218055;0.0002033;86.4011;40.026;84.6252;275.5176;2.0537E-5;7.7E-7;0;Iridium
14.34218043;0.0002035;86.4011;39.793;84.4893;275.6535;1.5644E-5;6.4E-7;0;Iridium
14.34218115;0.0002035;86.4011;39.6182;84.9734;275.1694;1.6582E-5;6.6E-7;0;Iridium
14.34218202;0.0002036;86.4012;39.3852;84.8979;275.2449;1.6504E-5;6.6E-7;0;Iridium
14.34218337;0.0002036;86.4013;38.9482;85.0494;275.0935;1.7061E-5;6.8E-7;0;Iridium
14.34218482;0.0002029;86.4014;38.5695;85.177;274.9657;2.0012E-5;7.6E-7;0;Iridium
14.34218544;0.0002022;86.4014;38.3655;85.1967;274.946;2.1304E-5;7.9E-7;0;Iridium
14.34218597;0.0002024;86.4014;38.1325;85.2983;274.8444;2.1246E-5;7.9E-7;0;Iridium
14.34218614;0.0002021;86.4015;37.9577;85.3221;274.8206;2.1112E-5;7.9E-7;0;Iridium
14.34218651;0.0002025;86.4016;37.7247;85.5257;274.617;2.0724E-5;7.8E-7;0;Iridium
14.3421868;0.0002022;86.4016;37.5208;85.5419;274.6008;1.995E-5;7.6E-7;0;Iridium
14.3421868;0.0002022;86.4016;37.5208;85.5419;274.6008;1.995E-5;7.6E-7;0;Iridium
14.3421872;0.000202;86.4016;37.3169;85.7339;274.4087;1.9826E-5;7.5E-7;0;Iridium
14.34218847;0.0002017;86.4016;36.9382;85.7819;274.3607;2.2186E-5;8.2E-7;0;Iridium
14.34218874;0.0002017;86.4016;36.8799;85.7695;274.3731;2.244E-5;8.3E-7;0;Iridium
14.34218981;0.0002014;86.4016;36.7051;85.7439;274.3987;2.5227E-5;9.0E-7;0;Iridium
14.34218981;0.0002014;86.4016;36.7051;85.7439;274.3987;2.5227E-5;9.0E-7;0;Iridium
14.34219074;0.0002012;86.4016;36.4721;85.7232;274.4193;2.5944E-5;9.2E-7;0;Iridium
14.34219166;0.0002008;86.4016;36.2682;85.718;274.4245;2.7056E-5;9.6E-7;0;Iridium
14.34219328;0.0002;86.4016;35.8605;86.0402;274.1022;2.7271E-5;9.6E-7;0;Iridium
14.34219348;0.0002008;86.4016;35.6566;86.4126;273.7299;2.4206E-5;8.8E-7;0;Iridium
14.34219446;0.0002015;86.4016;35.4235;87.2493;272.8934;2.4842E-5;8.9E-7;0;Iridium
14.34219489;0.0002018;86.4016;35.2779;87.3425;272.8002;2.3981E-5;8.7E-7;0;Iridium
14.34219455;0.000203;86.4016;35.1906;87.445;272.6979;2.0965E-5;7.8E-7;0;Iridium
14.34219529;0.0002032;86.4016;35.0158;87.6835;272.4593;2.1361E-5;8.0E-7;0;Iridium
14.34219553;0.0002038;86.4016;34.7828;87.6833;272.4596;1.8178E-5;7.1E-7;0;Iridium
14.34219624;0.0002038;86.4016;34.5789;87.8004;272.3425;1.8652E-5;7.2E-7;0;Iridium
14.34219624;0.0002038;86.4016;34.5789;87.8004;272.3425;1.8652E-5;7.2E-7;0;Iridium
14.34219655;0.000204;86.4016;34.3751;87.6558;272.4871;1.6347E-5;6.6E-7;0;Iridium
14.34219793;0.0002045;86.4016;33.9673;88.0484;272.0946;1.7289E-5;6.8E-7;0;Iridium
14.34219862;0.0002041;86.4017;33.7925;87.8231;272.3198;1.8677E-5;7.2E-7;0;Iridium
14.34219918;0.0002046;86.4017;33.5595;87.8749;272.2681;1.7684E-5;6.9E-7;0;Iridium
14.3421996;0.0002043;86.4018;33.3848;87.7169;272.4261;1.8204E-5;7.1E-7;0;Iridium
14.34219967;0.0002046;86.4017;33.1518;87.7546;272.3884;1.5555E-5;6.3E-7;0;Iridium
14.34220058;0.0002042;86.4018;32.9479;87.8924;272.2506;1.8387E-5;7.1E-7;0;Iridium
14.34220058;0.0002042;86.4018;32.9479;87.8924;272.2506;1.8387E-5;7.1E-7;0;Iridium
14.34220112;0.0002047;86.4017;32.744;88.1637;271.9793;1.9044E-5;7.3E-7;0;Iridium
14.34220171;0.0002045;86.4017;32.54;88.2306;271.9123;2.009E-5;7.6E-7;0;Iridium
14.34220242;0.0002052;86.4017;32.307;88.418;271.7251;2.1144E-5;7.9E-7;0;Iridium
14.34220278;0.0002049;86.4017;32.1031;88.1682;271.9748;2.13E-5;7.9E-7;0;Iridium
14.34220278;0.0002049;86.4017;32.1031;88.1682;271.9748;2.13E-5;7.9E-7;0;Iridium
14.34220278;0.0002049;86.4017;32.1031;88.1682;271.9748;2.13E-5;7.9E-7;0;Iridium
14.34215529;0.0002119;86.4015;31.8701;88.7513;271.3926;2.2219E-5;8.2E-7;0;Iridium
14.34215502;0.0002099;86.4015;31.5206;88.4975;271.6461;2.3507E-5;8.6E-7;0;Iridium
14.34215498;0.0002097;86.4015;31.4623;88.5644;271.5792;2.7841E-5;9.8E-7;0;Iridium
14.34215653;0.0002096;86.4015;31.2875;88.8136;271.33;4.4145E-5;1.43E-6;0;Iridium
14.34215612;0.0002102;86.4014;31.0545;88.7166;271.427;2.1667E-5;8.0E-7;0;Iridium
14.34215819;0.0002103;86.4014;30.8506;88.8264;271.3173;3.748E-5;1.25E-6;0;Iridium
14.34215819;0.0002103;86.4014;30.8506;88.8264;271.3173;3.748E-5;1.25E-6;0;Iridium
14.34215858;0.0002108;86.4014;30.6175;88.866;271.2777;3.1312E-5;1.07E-6;0;Iridium
14.3421591;0.0002102;86.4014;30.4428;88.9301;271.2136;2.9102E-5;1.01E-6;0;Iridium
14.34215977;0.0002107;86.4013;30.035;89.1432;271.0005;2.3101E-5;8.4E-7;0;Iridium
14.34216068;0.0002108;86.4013;29.8602;89.2751;270.8686;2.4344E-5;8.8E-7;0;Iridium
14.34216199;0.0002112;86.4013;29.598;89.4775;270.6663;2.5568E-5;9.1E-7;0;Iridium
14.34216199;0.0002112;86.4013;29.598;89.4775;270.6663;2.5568E-5;9.1E-7;0;Iridium
